NORAD_CAT_ID,OBJECT_NAME,OBJECT_TYPE,EPOCH,MEAN_MOTION,ECCENTRICITY,INCLINATION,RA_OF_ASC_NODE,ARG_OF_PERICENTER,MEAN_ANOMALY,BSTAR,MEAN_MOTION_DOT,MEAN_MOTION_DDOT,TLE_LINE0,TLE_LINE1,TLE_LINE2,SEMIMAJOR_AXIS,PERIOD,APOGEE,PERIGEE,DECAYED
53557.0,STARLINK-4502,PAYLOAD,2023-05-22 12:17:30,15.08837288,8.37e-05,53.2165,332.8518,83.8363,276.2724,5.0816e-05,5.21e-06,0.0,0 STARLINK-4502,1 53557U 22101AG  23142.51216174  .00000521  00000-0  50816-4 0  9992,2 53557  53.2165 332.8518 0000837  83.8363 276.2724 15.08837288 42644,6917.889,95.438,540.333,539.175,0.0
53557.0,STARLINK-4502,PAYLOAD,2023-05-23 02:35:59,15.08830809,8.97e-05,53.2158,330.176,71.0725,289.0365,-5.8889e-05,-1.225e-05,0.0,0 STARLINK-4502,1 53557U 22101AG  23143.10832563 -.00001225  00000-0 -58889-4 0  9996,2 53557  53.2158 330.1760 0000897  71.0725 289.0365 15.08830809 42086,6917.908,95.438,540.394,539.153,0.0
53557.0,STARLINK-4502,PAYLOAD,2023-05-23 18:29:50,15.08847724,8.56e-05,53.2162,327.2013,76.2077,283.901,0.00045624,6.982e-05,0.0,0 STARLINK-4502,1 53557U 22101AG  23143.77072371  .00006982  00000-0  45624-3 0  9997,2 53557  53.2162 327.2013 0000856  76.2077 283.9010 15.08847724 42186,6917.857,95.437,540.314,539.13,0.0
53557.0,STARLINK-4502,PAYLOAD,2023-05-23 21:40:36,15.08846928,8.29e-05,53.2163,326.6066,77.5055,282.603,0.00056697,8.749e-05,0.0,0 STARLINK-4502,1 53557U 22101AG  23143.90320361  .00008749  00000-0  56697-3 0  9992,2 53557  53.2163 326.6066 0000829  77.5055 282.6030 15.08846928 42855,6917.859,95.437,540.298,539.151,0.0
53557.0,STARLINK-4502,PAYLOAD,2023-05-24 02:26:46,15.08835465,9.98e-05,53.2163,325.7146,69.089,291.0209,0.00013197,1.813e-05,0.0,0 STARLINK-4502,1 53557U 22101AG  23144.10192627  .00001813  00000-0  13197-3 0  9990,2 53557  53.2163 325.7146 0000998  69.0890 291.0209 15.08835465 42232,6917.894,95.438,540.45,539.069,0.0
53557.0,STARLINK-4502,PAYLOAD,2023-05-24 15:09:51,15.08847268,8.45e-05,53.2165,323.3357,80.895,279.2137,0.00068399,0.00010617,0.0,0 STARLINK-4502,1 53557U 22101AG  23144.63184588  .00010617  00000-0  68399-3 0  9991,2 53557  53.2165 323.3357 0000845  80.8950 279.2137 15.08847268 42963,6917.858,95.437,540.308,539.139,0.0
53557.0,STARLINK-4502,PAYLOAD,2023-05-25 18:11:24,15.08851542,8.58e-05,53.2169,318.2805,76.6677,283.4411,0.0005744,8.868e-05,0.0,0 STARLINK-4502,1 53557U 22101AG  23145.75792420  .00008868  00000-0  57440-3 0  9995,2 53557  53.2169 318.2805 0000858  76.6677 283.4411 15.08851542 42480,6917.845,95.437,540.304,539.117,0.0
53557.0,STARLINK-4502,PAYLOAD,2023-05-25 21:22:10,15.08856187,8.48e-05,53.2169,317.6857,75.5777,284.5309,0.00060285,9.324e-05,0.0,0 STARLINK-4502,1 53557U 22101AG  23145.89040230  .00009324  00000-0  60285-3 0  9994,2 53557  53.2169 317.6857 0000848  75.5777 284.5309 15.08856187 43151,6917.831,95.437,540.283,539.109,0.0
53557.0,STARLINK-4502,PAYLOAD,2023-05-26 18:02:11,15.08837297,9.92e-05,53.2169,313.8189,105.3657,254.7445,5.4401e-07,-2.79e-06,0.0,0 STARLINK-4502,1 53557U 22101AG  23146.75152649 -.00000279  00000-0  54401-6 0  9995,2 53557  53.2169 313.8189 0000992 105.3657 254.7445 15.08837297 42639,6917.889,95.438,540.44,539.067,0.0
53557.0,STARLINK-4502,PAYLOAD,2023-05-26 21:12:58,15.08837666,9.9e-05,53.2169,313.2241,106.4448,253.6653,1.5332e-05,-4.4e-07,0.0,0 STARLINK-4502,1 53557U 22101AG  23146.88400693 -.00000044  00000-0  15332-4 0  9992,2 53557  53.2169 313.2241 0000990 106.4448 253.6653 15.08837666 43304,6917.888,95.438,540.437,539.068,0.0
53557.0,STARLINK-4502,PAYLOAD,2023-05-27 16:17:36,15.08839938,8.25e-05,53.2171,309.6566,89.5797,270.529,5.0414e-05,5.15e-06,0.0,0 STARLINK-4502,1 53557U 22101AG  23147.67888959  .00000515  00000-0  50414-4 0  9997,2 53557  53.2171 309.6566 0000825  89.5797 270.5290 15.08839938 43423,6917.881,95.438,540.316,539.175,0.0
53557.0,STARLINK-4502,PAYLOAD,2023-05-28 03:25:17,15.08845385,7.05e-05,53.2171,307.5753,106.6292,253.4778,7.5348e-05,9.12e-06,0.0,0 STARLINK-4502,1 53557U 22101AG  23148.14256528  .00000912  00000-0  75348-4 0  9995,2 53557  53.2171 307.5753 0000705 106.6292 253.4778 15.08845385 43497,6917.864,95.437,540.217,539.241,0.0
53557.0,STARLINK-4502,PAYLOAD,2023-05-28 11:22:13,15.08836037,8.33e-05,53.2169,306.0887,100.9655,259.1431,0.00010369,1.363e-05,0.0,0 STARLINK-4502,1 53557U 22101AG  23148.47377243  .00001363  00000-0  10369-3 0  9991,2 53557  53.2169 306.0887 0000833 100.9655 259.1431 15.08836037 42894,6917.893,95.438,540.334,539.181,0.0
53557.0,STARLINK-4502,PAYLOAD,2023-05-28 17:43:45,15.08843688,8.57e-05,53.2169,304.8992,104.0768,256.032,0.00016125,2.28e-05,0.0,0 STARLINK-4502,1 53557U 22101AG  23148.73872662  .00002280  00000-0  16125-3 0  9990,2 53557  53.2169 304.8992 0000857 104.0768 256.0320 15.08843688 42931,6917.869,95.437,540.327,539.141,0.0
53557.0,STARLINK-4502,PAYLOAD,2023-05-29 09:37:37,15.08837407,8.54e-05,53.216,301.9263,100.931,259.1778,7.4825e-05,9.03e-06,0.0,0 STARLINK-4502,1 53557U 22101AG  23149.40113019  .00000903  00000-0  74825-4 0  9991,2 53557  53.2160 301.9263 0000854 100.9310 259.1778 15.08837407 43031,6917.888,95.438,540.344,539.163,0.0
53557.0,STARLINK-4502,PAYLOAD,2023-05-29 14:23:47,15.08838124,8.29e-05,53.217,301.0342,103.7586,256.3499,0.00010066,1.315e-05,0.0,0 STARLINK-4502,1 53557U 22101AG  23149.59985243  .00001315  00000-0  10066-3 0  9991,2 53557  53.2170 301.0342 0000829 103.7586 256.3499 15.08838124 43710,6917.886,95.438,540.325,539.178,0.0
53557.0,STARLINK-4502,PAYLOAD,2023-05-29 19:09:56,15.08841863,8.16e-05,53.2171,300.1421,102.0648,258.0436,0.00010528,1.388e-05,0.0,0 STARLINK-4502,1 53557U 22101AG  23149.79856969  .00001388  00000-0  10528-3 0  9998,2 53557  53.2171 300.1421 0000816 102.0648 258.0436 15.08841863 43743,6917.875,95.437,540.304,539.175,0.0
53557.0,STARLINK-4502,PAYLOAD,2023-05-30 12:39:13,15.08814069,7.7e-05,53.2169,296.8715,86.6613,273.4467,-0.00011769,-2.159e-05,0.0,0 STARLINK-4502,1 53557U 22101AG  23150.52723724 -.00002159  00000-0 -11769-3 0  9990,2 53557  53.2169 296.8715 0000770  86.6613 273.4467 15.08814069 43850,6917.96,95.439,540.357,539.292,0.0
53557.0,STARLINK-4502,PAYLOAD,2023-05-30 15:49:59,15.08818227,7.09e-05,53.2171,296.2763,84.8646,275.2427,-0.00013248,-2.394e-05,0.0,0 STARLINK-4502,1 53557U 22101AG  23150.65971648 -.00002394  00000-0 -13248-3 0  9999,2 53557  53.2171 296.2763 0000709  84.8646 275.2427 15.08818227 43225,6917.947,95.439,540.302,539.321,0.0
53557.0,STARLINK-4502,PAYLOAD,2023-05-31 09:19:12,15.08832981,9e-06,53.2164,293.005,336.5546,23.5442,0.00013411,1.847e-05,0.0,0 STARLINK-4502,1 53557U 22101AG  23151.38834466  .00001847  00000-0  13411-3 0  9998,2 53557  53.2164 293.0050 0000090 336.5546  23.5442 15.08832981 43336,6917.902,95.438,539.829,539.705,0.0
53557.0,STARLINK-4502,PAYLOAD,2023-05-31 14:05:22,15.08844878,7.64e-05,53.216,292.1148,45.6419,314.4636,0.00031685,4.759e-05,0.0,0 STARLINK-4502,1 53557U 22101AG  23151.58706176  .00004759  00000-0  31685-3 0  9994,2 53557  53.2160 292.1148 0000764  45.6419 314.4636 15.08844878 44016,6917.865,95.437,540.259,539.202,0.0
53557.0,STARLINK-4502,PAYLOAD,2023-05-31 15:40:45,15.08850579,6.59e-05,53.2163,291.8171,44.9827,315.1218,0.00038506,5.848e-05,0.0,0 STARLINK-4502,1 53557U 22101AG  23151.65329908  .00005848  00000-0  38506-3 0  9995,2 53557  53.2163 291.8171 0000659  44.9827 315.1218 15.08850579 43376,6917.848,95.437,540.169,539.257,0.0
53557.0,STARLINK-4502,PAYLOAD,2023-06-01 09:09:59,15.08848756,6.67e-05,53.2158,288.5447,57.7195,302.3862,0.00052693,8.11e-05,0.0,0 STARLINK-4502,1 53557U 22101AG  23152.38194172  .00008110  00000-0  52693-3 0  9997,2 53557  53.2158 288.5447 0000667  57.7195 302.3862 15.08848756 44130,6917.854,95.437,540.18,539.257,0.0
53557.0,STARLINK-4502,PAYLOAD,2023-06-02 09:00:46,15.08847592,9.39e-05,53.2147,284.0868,43.5055,316.6011,-8.5563e-05,-1.649e-05,0.0,0 STARLINK-4502,1 53557U 22101AG  23153.37553408 -.00001649  00000-0 -85563-4 0  9993,2 53557  53.2147 284.0868 0000939  43.5055 316.6011 15.08847592 43631,6917.857,95.437,540.372,539.073,0.0
53557.0,STARLINK-4502,PAYLOAD,2023-06-02 13:46:56,15.08841469,7.01e-05,53.217,283.194,44.6518,315.4531,-6.3395e-05,-1.296e-05,0.0,0 STARLINK-4502,1 53557U 22101AG  23153.57426126 -.00001296  00000-0 -63395-4 0  9998,2 53557  53.2170 283.1940 0000701  44.6518 315.4531 15.08841469 44318,6917.876,95.437,540.226,539.256,0.0
53557.0,STARLINK-4502,PAYLOAD,2023-06-02 15:22:19,15.08845449,7.76e-05,53.2172,282.8968,29.1001,331.0034,-7.1526e-05,-1.426e-05,0.0,0 STARLINK-4502,1 53557U 22101AG  23153.64049840 -.00001426  00000-0 -71526-4 0  9990,2 53557  53.2172 282.8968 0000776  29.1001 331.0034 15.08845449 44328,6917.864,95.437,540.266,539.192,0.0
53557.0,STARLINK-4502,PAYLOAD,2023-06-03 13:37:42,15.0884376,5.64e-05,53.2173,278.731,80.2024,279.9031,-2.5217e-05,-6.89e-06,0.0,0 STARLINK-4502,1 53557U 22101AG  23154.56785482 -.00000689  00000-0 -25217-4 0  9997,2 53557  53.2173 278.7310 0000564  80.2024 279.9031 15.08843760 44468,6917.869,95.437,540.124,539.344,0.0
53557.0,STARLINK-4502,PAYLOAD,2023-06-03 15:13:05,15.0884747,4.62e-05,53.2173,278.4329,104.0375,256.0668,-2.7976e-05,-7.33e-06,0.0,0 STARLINK-4502,1 53557U 22101AG  23154.63409178 -.00000733  00000-0 -27976-4 0  9994,2 53557  53.2173 278.4329 0000462 104.0375 256.0668 15.08847470 44471,6917.858,95.437,540.042,539.403,0.0
53557.0,STARLINK-4502,PAYLOAD,2023-06-04 00:45:24,15.08846943,4.34e-05,53.2172,276.649,93.976,266.1282,-6.2821e-05,-1.287e-05,0.0,0 STARLINK-4502,1 53557U 22101AG  23155.03153184 -.00001287  00000-0 -62821-4 0  9995,2 53557  53.2172 276.6490 0000434  93.9760 266.1282 15.08846943 43884,6917.859,95.437,540.024,539.424,0.0
53557.0,STARLINK-4502,PAYLOAD,2023-06-04 15:03:52,15.08839502,4.48e-05,53.2168,273.9746,74.2149,285.8892,0.00011264,1.506e-05,0.0,0 STARLINK-4502,1 53557U 22101AG  23155.62769345  .00001506  00000-0  11264-3 0  9998,2 53557  53.2168 273.9746 0000448  74.2149 285.8892 15.08839502 44622,6917.882,95.438,540.057,539.437,0.0
